STARLINK-30819          
1 58179U 23167E   25346.16018306 -.00000710  00000+0 -37521-4 0  9995
2 58179  43.0027 261.9642 0000868 270.1541  89.9202 15.02537676117786
STARLINK-30806          
1 58180U 23167F   25346.33349537  .00013144  00000+0  97215-3 0  9997
2 58180  43.0027 260.6569 0001327 256.4276 114.3370 15.03081389  5742
STARLINK-30821          
1 58181U 23167G   25346.18337447  .00000015  00000+0  16210-4 0  9998
2 58181  43.0038 261.2736 0001504 249.6998 110.3683 15.02543040117798
STARLINK-30778          
1 58182U 23167H   25346.18004202  .00000328  00000+0  39326-4 0  9999
2 58182  43.0037 261.2533 0001264 262.8993  97.1706 15.02539135117796
STARLINK-30809          
1 58183U 23167J   25346.15352338 -.00002265  00000+0 -15257-3 0  9993
2 58183  43.0056 261.9166 0001799 268.8629  91.2007 15.02550119117785
STARLINK-30801          
1 58184U 23167K   25346.15020062 -.00000400  00000+0 -14513-4 0  9994
2 58184  43.0063 261.8907 0001473 266.1005  93.9669 15.02532278117783
STARLINK-30793          
1 58185U 23167L   25346.11024256 -.00000933  00000+0 -53983-4 0  9995
2 58185  43.0038 261.5914 0001442 262.5648  97.5030 15.02534605117788
STARLINK-30755          
1 58186U 23167M   25346.20780447 -.00002324  00000+0 -15709-3 0  9996
2 58186  43.0014 261.4637 0001491 266.5673  93.4999 15.02523655117793
STARLINK-30760          
1 58187U 23167N   25346.17341420 -.00002508  00000+0 -17077-3 0  9991
2 58187  43.0038 261.2027 0001478 262.3810  97.6865 15.02512244117793
STARLINK-30826          
1 58188U 23167P   25346.20668180  .00000550  00000+0  55757-4 0  9992
2 58188  43.0052 261.4525 0001173 272.1074  87.9633 15.02539865117791
STARLINK-30796          
1 58189U 23167Q   25346.21001975  .00000838  00000+0  77111-4 0  9994
2 58189  43.0080 261.4777 0001604 267.8060  92.2598 15.02531710117797
STARLINK-30820          
1 58190U 23167R   25346.14686790 -.00001209  00000+0 -74468-4 0  9999
2 58190  43.0014 261.8638 0000590 252.4715 107.6063 15.02531427117788
STARLINK-30785          
1 58191U 23167S   25346.20002147  .00000312  00000+0  38195-4 0  9994
2 58191  43.0039 261.4042 0001059 276.5569  83.5153 15.02538611117791
STARLINK-30807          
1 58192U 23167T   25346.13686569  .00021937  00000+0  16324-2 0  9997
2 58192  43.0016 261.7910 0001146 277.7633  82.3079 15.02572477117787
STARLINK-30822          
1 58193U 23167U   25346.19671403 -.00002355  00000+0 -15938-3 0  9991
2 58193  43.0032 261.3768 0001148 269.3569  90.7142 15.02521259117797
STARLINK-30830          
1 58194U 23167V   25346.19225193  .00000097  00000+0  22221-4 0  9996
2 58194  43.0026 261.3256 0000479 252.8985 107.1805 15.02540468117790
