[{"OBJECT_NAME":"STARLINK-30819","OBJECT_ID":"2023-167E","EPOCH":"2025-12-12T03:50:39.816384","MEAN_MOTION":15.02537676,"ECCENTRICITY":8.686e-5,"INCLINATION":43.0027,"RA_OF_ASC_NODE":261.9642,"ARG_OF_PERICENTER":270.1541,"MEAN_ANOMALY":89.9202,"EPHEMERIS_TYPE":0,"CLASSIFICATION_TYPE":"U","NORAD_CAT_ID":58179,"ELEMENT_SET_NO":999,"REV_AT_EPOCH":11778,"BSTAR":-3.752125e-5,"MEAN_MOTION_DOT":-7.1e-6,"MEAN_MOTION_DDOT":0},{"OBJECT_NAME":"STARLINK-30806","OBJECT_ID":"2023-167F","EPOCH":"2025-12-12T08:00:13.999968","MEAN_MOTION":15.03081389,"ECCENTRICITY":0.00013276,"INCLINATION":43.0027,"RA_OF_ASC_NODE":260.6569,"ARG_OF_PERICENTER":256.4276,"MEAN_ANOMALY":114.337,"EPHEMERIS_TYPE":0,"CLASSIFICATION_TYPE":"U","NORAD_CAT_ID":58180,"ELEMENT_SET_NO":999,"REV_AT_EPOCH":574,"BSTAR":0.00097215033,"MEAN_MOTION_DOT":0.00013144,"MEAN_MOTION_DDOT":0},{"OBJECT_NAME":"STARLINK-30821","OBJECT_ID":"2023-167G","EPOCH":"2025-12-12T04:24:03.554208","MEAN_MOTION":15.0254304,"ECCENTRICITY":0.00015047,"INCLINATION":43.0038,"RA_OF_ASC_NODE":261.2736,"ARG_OF_PERICENTER":249.6998,"MEAN_ANOMALY":110.3683,"EPHEMERIS_TYPE":0,"CLASSIFICATION_TYPE":"U","NORAD_CAT_ID":58181,"ELEMENT_SET_NO":999,"REV_AT_EPOCH":11779,"BSTAR":1.6210061e-5,"MEAN_MOTION_DOT":1.5e-7,"MEAN_MOTION_DDOT":0},{"OBJECT_NAME":"STARLINK-30778","OBJECT_ID":"2023-167H","EPOCH":"2025-12-12T04:19:15.630528","MEAN_MOTION":15.02539135,"ECCENTRICITY":0.00012643,"INCLINATION":43.0037,"RA_OF_ASC_NODE":261.2533,"ARG_OF_PERICENTER":262.8993,"MEAN_ANOMALY":97.1706,"EPHEMERIS_TYPE":0,"CLASSIFICATION_TYPE":"U","NORAD_CAT_ID":58182,"ELEMENT_SET_NO":999,"REV_AT_EPOCH":11779,"BSTAR":3.9326297e-5,"MEAN_MOTION_DOT":3.28e-6,"MEAN_MOTION_DDOT":0},{"OBJECT_NAME":"STARLINK-30809","OBJECT_ID":"2023-167J","EPOCH":"2025-12-12T03:41:04.420032","MEAN_MOTION":15.02550119,"ECCENTRICITY":0.00017999,"INCLINATION":43.0056,"RA_OF_ASC_NODE":261.9166,"ARG_OF_PERICENTER":268.8629,"MEAN_ANOMALY":91.2007,"EPHEMERIS_TYPE":0,"CLASSIFICATION_TYPE":"U","NORAD_CAT_ID":58183,"ELEMENT_SET_NO":999,"REV_AT_EPOCH":11778,"BSTAR":-0.00015256598,"MEAN_MOTION_DOT":-2.265e-5,"MEAN_MOTION_DDOT":0},{"OBJECT_NAME":"STARLINK-30801","OBJECT_ID":"2023-167K","EPOCH":"2025-12-12T03:36:17.333568","MEAN_MOTION":15.02532278,"ECCENTRICITY":0.00014733,"INCLINATION":43.0063,"RA_OF_ASC_NODE":261.8907,"ARG_OF_PERICENTER":266.1005,"MEAN_ANOMALY":93.9669,"EPHEMERIS_TYPE":0,"CLASSIFICATION_TYPE":"U","NORAD_CAT_ID":58184,"ELEMENT_SET_NO":999,"REV_AT_EPOCH":11778,"BSTAR":-1.4512653e-5,"MEAN_MOTION_DOT":-4.0e-6,"MEAN_MOTION_DDOT":0},{"OBJECT_NAME":"STARLINK-30793","OBJECT_ID":"2023-167L","EPOCH":"2025-12-12T02:38:44.957184","MEAN_MOTION":15.02534605,"ECCENTRICITY":0.00014429,"INCLINATION":43.0038,"RA_OF_ASC_NODE":261.5914,"ARG_OF_PERICENTER":262.5648,"MEAN_ANOMALY":97.503,"EPHEMERIS_TYPE":0,"CLASSIFICATION_TYPE":"U","NORAD_CAT_ID":58185,"ELEMENT_SET_NO":999,"REV_AT_EPOCH":11778,"BSTAR":-5.3982722e-5,"MEAN_MOTION_DOT":-9.33e-6,"MEAN_MOTION_DDOT":0},{"OBJECT_NAME":"STARLINK-30755","OBJECT_ID":"2023-167M","EPOCH":"2025-12-12T04:59:14.306208","MEAN_MOTION":15.02523655,"ECCENTRICITY":0.00014917,"INCLINATION":43.0014,"RA_OF_ASC_NODE":261.4637,"ARG_OF_PERICENTER":266.5673,"MEAN_ANOMALY":93.4999,"EPHEMERIS_TYPE":0,"CLASSIFICATION_TYPE":"U","NORAD_CAT_ID":58186,"ELEMENT_SET_NO":999,"REV_AT_EPOCH":11779,"BSTAR":-0.00015709097,"MEAN_MOTION_DOT":-2.324e-5,"MEAN_MOTION_DDOT":0},{"OBJECT_NAME":"STARLINK-30760","OBJECT_ID":"2023-167N","EPOCH":"2025-12-12T04:09:42.986880","MEAN_MOTION":15.02512244,"ECCENTRICITY":0.00014784,"INCLINATION":43.0038,"RA_OF_ASC_NODE":261.2027,"ARG_OF_PERICENTER":262.381,"MEAN_ANOMALY":97.6865,"EPHEMERIS_TYPE":0,"CLASSIFICATION_TYPE":"U","NORAD_CAT_ID":58187,"ELEMENT_SET_NO":999,"REV_AT_EPOCH":11779,"BSTAR":-0.00017076507,"MEAN_MOTION_DOT":-2.508e-5,"MEAN_MOTION_DDOT":0},{"OBJECT_NAME":"STARLINK-30826","OBJECT_ID":"2023-167P","EPOCH":"2025-12-12T04:57:37.307520","MEAN_MOTION":15.02539865,"ECCENTRICITY":0.00011738,"INCLINATION":43.0052,"RA_OF_ASC_NODE":261.4525,"ARG_OF_PERICENTER":272.1074,"MEAN_ANOMALY":87.9633,"EPHEMERIS_TYPE":0,"CLASSIFICATION_TYPE":"U","NORAD_CAT_ID":58188,"ELEMENT_SET_NO":999,"REV_AT_EPOCH":11779,"BSTAR":5.5756779e-5,"MEAN_MOTION_DOT":5.5e-6,"MEAN_MOTION_DDOT":0},{"OBJECT_NAME":"STARLINK-30796","OBJECT_ID":"2023-167Q","EPOCH":"2025-12-12T05:02:25.706400","MEAN_MOTION":15.0253171,"ECCENTRICITY":0.00016041,"INCLINATION":43.008,"RA_OF_ASC_NODE":261.4777,"ARG_OF_PERICENTER":267.806,"MEAN_ANOMALY":92.2598,"EPHEMERIS_TYPE":0,"CLASSIFICATION_TYPE":"U","NORAD_CAT_ID":58189,"ELEMENT_SET_NO":999,"REV_AT_EPOCH":11779,"BSTAR":7.7111067e-5,"MEAN_MOTION_DOT":8.38e-6,"MEAN_MOTION_DDOT":0},{"OBJECT_NAME":"STARLINK-30820","OBJECT_ID":"2023-167R","EPOCH":"2025-12-12T03:31:29.386560","MEAN_MOTION":15.02531427,"ECCENTRICITY":5.903e-5,"INCLINATION":43.0014,"RA_OF_ASC_NODE":261.8638,"ARG_OF_PERICENTER":252.4715,"MEAN_ANOMALY":107.6063,"EPHEMERIS_TYPE":0,"CLASSIFICATION_TYPE":"U","NORAD_CAT_ID":58190,"ELEMENT_SET_NO":999,"REV_AT_EPOCH":11778,"BSTAR":-7.4468023e-5,"MEAN_MOTION_DOT":-1.209e-5,"MEAN_MOTION_DDOT":0},{"OBJECT_NAME":"STARLINK-30785","OBJECT_ID":"2023-167S","EPOCH":"2025-12-12T04:48:01.855008","MEAN_MOTION":15.02538611,"ECCENTRICITY":0.00010599,"INCLINATION":43.0039,"RA_OF_ASC_NODE":261.4042,"ARG_OF_PERICENTER":276.5569,"MEAN_ANOMALY":83.5153,"EPHEMERIS_TYPE":0,"CLASSIFICATION_TYPE":"U","NORAD_CAT_ID":58191,"ELEMENT_SET_NO":999,"REV_AT_EPOCH":11779,"BSTAR":3.8195255e-5,"MEAN_MOTION_DOT":3.12e-6,"MEAN_MOTION_DDOT":0},{"OBJECT_NAME":"STARLINK-30807","OBJECT_ID":"2023-167T","EPOCH":"2025-12-12T03:17:05.195616","MEAN_MOTION":15.02572477,"ECCENTRICITY":0.00011462,"INCLINATION":43.0016,"RA_OF_ASC_NODE":261.791,"ARG_OF_PERICENTER":277.7633,"MEAN_ANOMALY":82.3079,"EPHEMERIS_TYPE":0,"CLASSIFICATION_TYPE":"U","NORAD_CAT_ID":58192,"ELEMENT_SET_NO":999,"REV_AT_EPOCH":11778,"BSTAR":0.0016323573,"MEAN_MOTION_DOT":0.00021937,"MEAN_MOTION_DDOT":0},{"OBJECT_NAME":"STARLINK-30822","OBJECT_ID":"2023-167U","EPOCH":"2025-12-12T04:43:16.092192","MEAN_MOTION":15.02521259,"ECCENTRICITY":0.00011481,"INCLINATION":43.0032,"RA_OF_ASC_NODE":261.3768,"ARG_OF_PERICENTER":269.3569,"MEAN_ANOMALY":90.7142,"EPHEMERIS_TYPE":0,"CLASSIFICATION_TYPE":"U","NORAD_CAT_ID":58193,"ELEMENT_SET_NO":999,"REV_AT_EPOCH":11779,"BSTAR":-0.00015937788,"MEAN_MOTION_DOT":-2.355e-5,"MEAN_MOTION_DDOT":0},{"OBJECT_NAME":"STARLINK-30830","OBJECT_ID":"2023-167V","EPOCH":"2025-12-12T04:36:50.566752","MEAN_MOTION":15.02540468,"ECCENTRICITY":4.795e-5,"INCLINATION":43.0026,"RA_OF_ASC_NODE":261.3256,"ARG_OF_PERICENTER":252.8985,"MEAN_ANOMALY":107.1805,"EPHEMERIS_TYPE":0,"CLASSIFICATION_TYPE":"U","NORAD_CAT_ID":58194,"ELEMENT_SET_NO":999,"REV_AT_EPOCH":11779,"BSTAR":2.2220898e-5,"MEAN_MOTION_DOT":9.7e-7,"MEAN_MOTION_DDOT":0}]
